NORAD_CAT_ID,OBJECT_NAME,OBJECT_TYPE,EPOCH,MEAN_MOTION,ECCENTRICITY,INCLINATION,RA_OF_ASC_NODE,ARG_OF_PERICENTER,MEAN_ANOMALY,BSTAR,MEAN_MOTION_DOT,MEAN_MOTION_DDOT,TLE_LINE0,TLE_LINE1,TLE_LINE2,SEMIMAJOR_AXIS,PERIOD,APOGEE,PERIGEE,DECAYED
53182.0,STARLINK-4278,PAYLOAD,2023-06-03 18:11:16,15.08845276,0.0001086,53.2169,352.8729,79.5062,280.6052,6.0481e-05,6.75e-06,0.0,0 STARLINK-4278,1 53182U 22083BC  23154.75783208  .00000675  00000-0  60481-4 0  9990,2 53182  53.2169 352.8729 0001086  79.5062 280.6052 15.08845276 49874,6917.864,95.437,540.481,538.978,0.0
53182.0,STARLINK-4278,PAYLOAD,2023-06-03 19:46:39,15.08844824,0.0001027,53.2172,352.5746,88.2233,271.8877,0.00011317,1.514e-05,0.0,0 STARLINK-4278,1 53182U 22083BC  23154.82407047  .00001514  00000-0  11317-3 0  9998,2 53182  53.2172 352.5746 0001027  88.2233 271.8877 15.08844824 49242,6917.866,95.437,540.441,539.02,0.0
53182.0,STARLINK-4278,PAYLOAD,2023-06-04 11:40:31,15.08839215,0.0001019,53.2167,349.6018,88.0245,272.0864,4.8519e-05,4.84e-06,0.0,0 STARLINK-4278,1 53182U 22083BC  23155.48647563  .00000484  00000-0  48519-4 0  9990,2 53182  53.2167 349.6018 0001019  88.0245 272.0864 15.08839215 49345,6917.883,95.438,540.453,539.043,0.0
53182.0,STARLINK-4278,PAYLOAD,2023-06-04 19:37:27,15.08840923,0.0001029,53.217,348.1139,92.8307,267.2803,5.0894e-05,5.22e-06,0.0,0 STARLINK-4278,1 53182U 22083BC  23155.81767389  .00000522  00000-0  50894-4 0  9998,2 53182  53.2170 348.1139 0001029  92.8307 267.2803 15.08840923 50035,6917.878,95.437,540.454,539.031,0.0
53182.0,STARLINK-4278,PAYLOAD,2023-06-05 13:06:41,15.0883641,0.0001056,53.2172,344.8421,91.6545,268.4568,-8.3614e-06,-4.21e-06,0.0,0 STARLINK-4278,1 53182U 22083BC  23156.54631933 -.00000421  00000-0 -83614-5 0  9991,2 53182  53.2172 344.8421 0001056  91.6545 268.4568 15.08836410 49502,6917.891,95.438,540.487,539.026,0.0
53182.0,STARLINK-4278,PAYLOAD,2023-06-05 17:52:51,15.08838724,0.0001055,53.2172,343.9499,91.155,268.9563,6.9605e-06,-1.77e-06,0.0,0 STARLINK-4278,1 53182U 22083BC  23156.74503745 -.00000177  00000-0  69605-5 0  9993,2 53182  53.2172 343.9499 0001055  91.1550 268.9563 15.08838724 49530,6917.884,95.438,540.479,539.019,0.0
53182.0,STARLINK-4278,PAYLOAD,2023-06-05 22:39:00,15.08842683,9.87e-05,53.2168,343.0594,89.0291,271.0814,5.4461e-05,5.79e-06,0.0,0 STARLINK-4278,1 53182U 22083BC  23156.94375360  .00000579  00000-0  54461-4 0  9993,2 53182  53.2168 343.0594 0000987  89.0291 271.0814 15.08842683 50202,6917.872,95.437,540.42,539.054,0.0
53182.0,STARLINK-4278,PAYLOAD,2023-06-06 08:11:19,15.088338,9.93e-05,53.2169,341.2746,82.9257,277.1848,1.8737e-05,1e-07,0.0,0 STARLINK-4278,1 53182U 22083BC  23157.34120164  .00000010  00000-0  18737-4 0  9994,2 53182  53.2169 341.2746 0000993  82.9257 277.1848 15.08833800 50264,6917.899,95.438,540.451,539.077,0.0
53182.0,STARLINK-4278,PAYLOAD,2023-06-06 19:19:01,15.08842703,9.99e-05,53.2168,339.1942,86.168,273.9426,9.3432e-05,1.2e-05,0.0,0 STARLINK-4278,1 53182U 22083BC  23157.80487513  .00001200  00000-0  93432-4 0  9996,2 53182  53.2168 339.1942 0000999  86.1680 273.9426 15.08842703 49692,6917.872,95.437,540.428,539.046,0.0
53182.0,STARLINK-4278,PAYLOAD,2023-06-06 22:29:47,15.08846877,0.0001022,53.217,338.5983,82.7525,277.3583,0.00012651,1.727e-05,0.0,0 STARLINK-4278,1 53182U 22083BC  23157.93735160  .00001727  00000-0  12651-3 0  9991,2 53182  53.2170 338.5983 0001022  82.7525 277.3583 15.08846877 50354,6917.859,95.437,540.431,539.017,0.0
53182.0,STARLINK-4278,PAYLOAD,2023-06-07 06:26:43,15.08841,9.58e-05,53.2168,337.1129,92.1881,267.9221,-2.1989e-06,-3.23e-06,0.0,0 STARLINK-4278,1 53182U 22083BC  23158.26855792 -.00000323  00000-0 -21989-5 0  9991,2 53182  53.2168 337.1129 0000958  92.1881 267.9221 15.08841000 50408,6917.877,95.437,540.405,539.08,0.0
53182.0,STARLINK-4278,PAYLOAD,2023-06-07 20:45:11,15.08842992,9.96e-05,53.2169,334.4351,92.1645,267.9461,8.7927e-05,1.112e-05,0.0,0 STARLINK-4278,1 53182U 22083BC  23158.86471655  .00001112  00000-0  87927-4 0  9997,2 53182  53.2169 334.4351 0000996  92.1645 267.9461 15.08842992 49850,6917.871,95.437,540.425,539.047,0.0
53182.0,STARLINK-4278,PAYLOAD,2023-06-08 11:03:40,15.08835687,0.0001017,53.2168,331.7591,97.0888,263.022,7.8415e-05,9.6e-06,0.0,0 STARLINK-4278,1 53182U 22083BC  23159.46088237  .00000960  00000-0  78415-4 0  9996,2 53182  53.2168 331.7591 0001017  97.0888 263.0220 15.08835687 50588,6917.894,95.438,540.462,539.055,0.0
53182.0,STARLINK-4278,PAYLOAD,2023-06-08 12:39:03,15.08836448,0.000113,53.2158,331.4604,85.318,274.7942,9.4468e-05,1.216e-05,0.0,0 STARLINK-4278,1 53182U 22083BC  23159.52712220  .00001216  00000-0  94468-4 0  9990,2 53182  53.2158 331.4604 0001130  85.3180 274.7942 15.08836448 49955,6917.891,95.438,540.538,538.975,0.0
53182.0,STARLINK-4278,PAYLOAD,2023-06-09 10:54:27,15.08832829,0.0001053,53.2172,327.299,85.4838,274.6274,7.6166e-05,9.24e-06,0.0,0 STARLINK-4278,1 53182U 22083BC  23160.45448637  .00000924  00000-0  76166-4 0  9992,2 53182  53.2172 327.2990 0001053  85.4838 274.6274 15.08832829 50090,6917.902,95.438,540.496,539.039,0.0
53182.0,STARLINK-4278,PAYLOAD,2023-06-09 14:05:13,15.08833419,0.0001081,53.217,326.7043,85.9642,274.1474,4.8842e-05,4.89e-06,0.0,0 STARLINK-4278,1 53182U 22083BC  23160.58696704  .00000489  00000-0  48842-4 0  9992,2 53182  53.2170 326.7043 0001081  85.9642 274.1474 15.08833419 50756,6917.901,95.438,540.513,539.018,0.0
53182.0,STARLINK-4278,PAYLOAD,2023-06-09 15:40:37,15.08834361,0.0001053,53.217,326.4069,86.135,273.9763,5.4726e-05,5.83e-06,0.0,0 STARLINK-4278,1 53182U 22083BC  23160.65320642  .00000583  00000-0  54726-4 0  9998,2 53182  53.2170 326.4069 0001053  86.1350 273.9763 15.08834361 50125,6917.898,95.438,540.491,539.034,0.0
53182.0,STARLINK-4278,PAYLOAD,2023-06-10 12:20:37,15.08840833,0.0001121,53.217,322.5411,83.2768,276.8352,6.1289e-05,6.88e-06,0.0,0 STARLINK-4278,1 53182U 22083BC  23161.51432284  .00000688  00000-0  61289-4 0  9998,2 53182  53.2170 322.5411 0001121  83.2768 276.8352 15.08840833 50251,6917.878,95.438,540.518,538.967,0.0
53182.0,STARLINK-4278,PAYLOAD,2023-06-10 20:17:32,15.08850327,0.0001117,53.217,321.053,95.7263,264.3856,9.8968e-05,1.288e-05,0.0,0 STARLINK-4278,1 53182U 22083BC  23161.84551460  .00001288  00000-0  98968-4 0  9993,2 53182  53.2170 321.0530 0001117  95.7263 264.3856 15.08850327 50306,6917.849,95.437,540.487,538.941,0.0
53182.0,STARLINK-4278,PAYLOAD,2023-06-11 05:49:51,15.08839444,9.88e-05,53.2168,319.2682,97.897,262.2134,9.2947e-05,1.192e-05,0.0,0 STARLINK-4278,1 53182U 22083BC  23162.24296138  .00001192  00000-0  92947-4 0  9991,2 53182  53.2168 319.2682 0000988  97.8970 262.2134 15.08839444 51004,6917.882,95.438,540.431,539.064,0.0
53182.0,STARLINK-4278,PAYLOAD,2023-06-11 12:11:25,15.08826101,0.0001181,53.2168,318.0798,90.1638,269.949,0.00020307,2.944e-05,0.0,0 STARLINK-4278,1 53182U 22083BC  23162.50792840  .00002944  00000-0  20307-3 0  9997,2 53182  53.2168 318.0798 0001181  90.1638 269.9490 15.08826101 50400,6917.923,95.438,540.605,538.971,0.0
53182.0,STARLINK-4278,PAYLOAD,2023-06-11 20:08:19,15.08845712,0.0001018,53.217,316.5913,108.8007,251.3096,0.00010039,1.311e-05,0.0,0 STARLINK-4278,1 53182U 22083BC  23162.83911656  .00001311  00000-0  10039-3 0  9999,2 53182  53.2170 316.5913 0001018 108.8007 251.3096 15.08845712 50452,6917.863,95.437,540.432,539.024,0.0
53182.0,STARLINK-4278,PAYLOAD,2023-06-12 16:48:20,15.08840436,9.57e-05,53.2178,312.7252,93.015,267.0951,1.9744e-05,2.7e-07,0.0,0 STARLINK-4278,1 53182U 22083BC  23163.70024144  .00000027  00000-0  19744-4 0  9999,2 53182  53.2178 312.7252 0000957  93.0150 267.0951 15.08840436 51227,6917.879,95.438,540.406,539.082,0.0
53182.0,STARLINK-4278,PAYLOAD,2023-06-13 10:17:35,15.08831868,0.000103,53.2175,309.4576,91.1699,268.9412,1.1739e-05,-1.01e-06,0.0,0 STARLINK-4278,1 53182U 22083BC  23164.42888861 -.00000101  00000-0  11739-4 0  9993,2 53182  53.2175 309.4576 0001030  91.1699 268.9412 15.08831868 51339,6917.905,95.438,540.483,539.058,0.0
53182.0,STARLINK-4278,PAYLOAD,2023-06-14 02:11:26,15.08842773,0.0001123,53.2181,306.4856,87.4998,272.6123,-1.1705e-05,-4.74e-06,0.0,0 STARLINK-4278,1 53182U 22083BC  23165.09128370 -.00000474  00000-0 -11705-4 0  9996,2 53182  53.2181 306.4856 0001123  87.4998 272.6123 15.08842773 51436,6917.872,95.437,540.514,538.96,0.0
53182.0,STARLINK-4278,PAYLOAD,2023-06-14 08:32:59,15.08829157,0.0001144,53.218,305.2963,93.9113,266.201,0.00019007,2.738e-05,0.0,0 STARLINK-4278,1 53182U 22083BC  23165.35624892  .00002738  00000-0  19007-3 0  9990,2 53182  53.2180 305.2963 0001144  93.9113 266.2010 15.08829157 51474,6917.914,95.438,540.57,538.987,0.0
53182.0,STARLINK-4278,PAYLOAD,2023-06-14 18:05:19,15.08799446,0.0001449,53.2184,303.5114,95.2028,264.9129,0.00056713,8.739e-05,0.0,0 STARLINK-4278,1 53182U 22083BC  23165.75369614  .00008739  00000-0  56713-3 0  9994,2 53182  53.2184 303.5114 0001449  95.2028 264.9129 15.08799446 51535,6918.004,95.44,540.872,538.867,0.0
53182.0,STARLINK-4278,PAYLOAD,2023-06-15 02:02:14,15.08835162,0.0001202,53.2183,302.0244,88.3283,271.7847,-2.3986e-05,-6.69e-06,0.0,0 STARLINK-4278,1 53182U 22083BC  23166.08489179 -.00000669  00000-0 -23986-4 0  9993,2 53182  53.2183 302.0244 0001202  88.3283 271.7847 15.08835162 51589,6917.895,95.438,540.592,538.929,0.0
53182.0,STARLINK-4278,PAYLOAD,2023-06-15 13:09:56,15.08833895,0.0001219,53.2186,299.9429,92.1892,267.924,3.0958e-05,2.05e-06,0.0,0 STARLINK-4278,1 53182U 22083BC  23166.54857387  .00000205  00000-0  30958-4 0  9995,2 53182  53.2186 299.9429 0001219  92.1892 267.9240 15.08833895 51011,6917.899,95.438,540.607,538.921,0.0
53182.0,STARLINK-4278,PAYLOAD,2023-06-15 17:56:05,15.0883858,0.0001196,53.2178,299.0503,85.201,274.9118,6.8649e-05,8.05e-06,0.0,0 STARLINK-4278,1 53182U 22083BC  23166.74729045  .00000805  00000-0  68649-4 0  9990,2 53182  53.2178 299.0503 0001196  85.2010 274.9118 15.08838580 51046,6917.885,95.438,540.577,538.922,0.0
